STARLINK-2550
1 18293C 21036T   21326.18123031  .00005707  00000-0  38238-3 0  3261
2 18293  53.0547 282.9229 0001906  59.8213 268.3854 15.06388910    18
